EUTELSAT 8 WEST B       
1 40875U 15039B   25323.23186972 -.00000045  00000+0  00000+0 0  9993
2 40875   0.0674 348.7227 0004162 254.4997 250.7904  1.00271982 37556
EUTELSAT 9B             
1 41310U 16005A   25323.23524975  .00000082  00000+0  00000+0 0  9991
2 41310   0.0716  78.7425 0004297 180.0861 253.3800  1.00272142 36014
EUTELSAT 65 WEST A      
1 41382U 16014A   25322.51475259 -.00000258  00000+0  00000+0 0  9996
2 41382   0.0912  55.0391 0002233 194.2500 288.6493  1.00275537 35420
EUTELSAT 117 WEST B     
1 41589U 16038B   25322.56829110  .00000007  00000+0  00000+0 0  9996
2 41589   0.0129 137.1770 0000085  65.3342 302.9766  1.00272648 34553
EUTELSAT 172B           
1 42741U 17029B   25323.12487847  .00000015  00000+0  00000+0 0  9997
2 42741   0.0348 152.1492 0000238 290.2123 193.0170  1.00273047 31628
EUTELSAT 7C             
1 44334U 19034B   25322.36850323  .00000067  00000+0  00000+0 0  9990
2 44334   0.0729 184.5555 0003301  26.5774 346.2391  1.00270057  4722
EUTELSAT 5 WEST B       
1 44624U 19067A   25323.23247639 -.00000021  00000+0  00000+0 0  9996
2 44624   0.0729 325.7457 0003351 274.8016 256.6961  1.00275246 22335
EUTELSAT KONNECT        
1 45027U 20005B   25322.59281792  .00000068  00000+0  00000+0 0  9994
2 45027   0.0657  97.2880 0001132 172.3186   8.9038  1.00270018 22211
